#cP2015  4  9  0  0  0.00000000      96   u+U IGb08 FIT  WHU
## 1839 345600.00000000   900.00000000 57121     0.000000000
+   73   G01G02G03G04G05G06G07G08G09G10G11G12G13G14G15G16G17
+        G18G19G20G21G22G23G24G25G27G28G29G30G31G32R01R02R03
+        R04R05R06R07R08R09R10R11R12R13R14R15R16R17R18R19R20
+        R21R22R23R24E11E12E14E18E19C01C02C03C04C05C06C07C08
+        C09C10C11C12C14  0  0  0  0  0  0  0  0  0  0  0  0
+          0  0  0  0  0  0  0  0  0  0  0  0  0  0  0  0  0
+          0  0  0  0  0  0  0  0  0  0  0  0  0  0  0  0  0
+          0  0  0  0  0  0  0  0  0  0  0  0  0  0  0  0  0
+          0  0  0  0  0  0  0  0  0  0  0  0  0  0  0  0  0
+          0  0  0  0  0  0  0  0  0  0  0  0  0  0  0  0  0
++         3  3  3  3  3  3  3  3  3  4  3  3  3  3  3  3  3
++         4  3  3  3  3  3  3  3  3  4  3  3  3  5  5  4  4
++         4  4  4  4  4  3  3  3  4  3  3  3  3  3  3  3  3
++         3  4  3  3  6  5  5  6  6  9  6  8 10  6  6  4  4
++         4  5  3  4  6  0  0  0  0  0  0  0  0  0  0  0  0
++         0  0  0  0  0  0  0  0  0  0  0  0  0  0  0  0  0
++         0  0  0  0  0  0  0  0  0  0  0  0  0  0  0  0  0
++         0  0  0  0  0  0  0  0  0  0  0  0  0  0  0  0  0
++         0  0  0  0  0  0  0  0  0  0  0  0  0  0  0  0  0
++         0  0  0  0  0  0  0  0  0  0  0  0  0  0  0  0  0
%c M  cc GPS ccc cccc cccc cccc cccc ccccc ccccc ccccc ccccc
%c cc cc ccc ccc cccc cccc cccc cccc ccccc ccccc ccccc ccccc
%f  1.2500000  1.025000000  0.00000000000  0.000000000000000
%f  0.0000000  0.000000000  0.00000000000  0.000000000000000
%i    0    0    0    0      0      0      0      0         0
%i    0    0    0    0      0      0      0      0         0
/* GNSS RESEARCH CENTER, WUHAN UNIVERSITY (WHU), P. R. CHINA
/* POSITION AND NAVIGATION DATA ANALYST (PANDA) SOFTWARE    
/* PCV:IGS08_1837 OL/AL:FES2004  NONE     NN ORB:CoM CLK:CoN
/*
*  2015  4  9  7 45  0.00000000
PG01  12498.550901  13353.094473 -19371.181931     -6.995187
PG02  11127.027141 -14677.556767  19338.305749    558.666232
PG03  13545.554830  22818.881680   -276.593643    289.513956
PG04   1928.964068  15755.192848 -21623.836283    -10.903911
PG05   1004.730507 -20825.458490  16301.231793   -256.141062
PG06  24017.655481  -6821.864315   9045.709191    131.027099
PG07  23727.728700   7105.181156  10173.455979    453.988033
PG08 -14774.050879  10874.152246  19161.266781     19.329393
PG09  13070.115677   7923.396039  21711.549240   -133.048533
PG10  15863.814560  -2880.088052  20782.188253   -170.248606
PG11   6534.200414  15620.289893 -20994.382590   -570.118873
PG12 -10722.919897 -24230.410429  -3243.986142    283.345727
PG13  12228.706475 -23157.852066  -4956.329098   -104.042706
PG14 -19122.444861  10972.063361 -14464.801934     72.243947
PG15     65.071715 -22758.051437 -13515.975424   -242.520100
PG16  -2007.031534  20173.127526  16879.342228   -140.376352
PG17  18619.596729  -9826.074689 -15771.299607   -165.417026
PG18 -19451.076017 -10213.881300 -14648.467945    392.573764
PG19  -5590.714330  22863.260864 -12016.099104   -506.751698
PG20  10158.796597 -12724.926641  20821.465673    308.420279
PG21 -25380.184971  -4806.338779   7660.823748   -434.779037
PG22 -16612.961749   2508.417923 -20374.638416    337.721178
PG23   6042.391979  17350.770722  19163.106412   -100.691568
PG24  -9396.798994 -14200.427467 -20453.985401    -46.328725
PG25 -17613.299810 -18024.195011   8561.440445    -18.116859
PG27 -12042.381824  23581.778566  -1104.027659     63.725939
PG28  16614.971744   3944.975150 -19752.216930    431.722235
PG29 -10266.203944 -11462.321205  21684.242439    603.233996
PG30  26563.669395   1093.961903   -556.968703    -73.118147
PG31 -22555.758207   7885.856480  12088.193454    319.064698
PG32   1659.126869  23636.426663 -12545.349569   -180.557049
PR01   2726.378160  24757.836751  -5540.429971   -154.671672
PR02  10234.476766  19931.832243  12194.460412    127.274626
PR03  11662.285690   3315.774320  22474.268746     39.094224
PR04   6111.383384 -15410.880334  19402.950777    116.553369
PR05  -2910.887344 -24790.982899   5233.578732      4.960764
PR06 -10617.085703 -19404.017927 -12748.058021     65.628465
PR07 -11618.118654  -3187.613157 -22455.888233   -118.456655
PR08  -6284.759316  15074.359482 -19550.519773    -26.543941
PR09 -20070.527795 -11806.864695 -10566.788559     -0.388159
PR10 -24121.889849  -4959.208197   6489.636123     12.533377
PR11 -14587.538530   5055.849243  20327.184409      4.442043
PR12   4174.382637  12182.840034  22014.444755      0.693884
PR13  20242.324813  11518.632113  10378.693373   -478.808044
PR14  24017.462209   4408.200876  -7514.722745    153.150590
PR15  14765.538684  -4685.637505 -20226.022498     42.739989
PR16  -4831.733308 -12309.455610 -21834.177375     -3.716936
PR17  18700.893228  -6613.008865 -15987.962167    155.367698
PR18  19088.901243 -16978.529611     50.526568     45.187923
PR19   7316.192083 -17046.445587  17517.277484   -122.678841
PR20  -8400.102110  -6878.091296  23092.010925   -167.799582
PR21 -18680.565226   6415.702511  16162.086872      6.475758
PR22 -19024.523307  16878.042416     35.573501    158.765493
PR23  -7800.213357  17458.229894 -16880.713085     18.743912
PR24   6978.205822   8207.689555 -23136.730542   -123.131037
PE11   6779.278122 -22111.812889  18490.783380     53.590835
PE12  21099.370980 -20458.653150   3594.476558   -597.783379
PE14  14527.494602  12591.945853 -22546.054670    222.940459
PE18  -2123.374698 -21962.961447  16556.909758   3070.641187
PE19  17369.543439   3651.923630  23684.671994     -2.851412
PC01 -32294.817734  27086.469516   1168.833926    -34.751569
PC02   7282.882223  41524.282410     43.019383   -466.396523
PC03 -14824.255932  39466.741183    632.968435     27.167875
PC04 -39607.599870  14451.869795    572.244156   -116.130445
PC05  21874.050691  36043.785244   -177.771498    -30.185472
PC06  -7599.377861  31775.256315 -26435.100168   -577.398009
PC07 -18359.305907  20876.025291  31691.578483    -55.451638
PC08 -23601.646423  34807.804070  -4202.714235   -783.952498
PC09   4216.631776  39625.540340 -13308.810674    892.224640
PC10  -2025.918397  24650.412778  34191.572749    861.055011
PC11   7094.244464  15484.759645 -22090.075582   -569.628510
PC12  -9207.391202  24176.876617 -10585.216924    437.819184
PC14  13969.838071  23567.974738   5112.865893    202.960774
EOF
